STARLINK-36914          
1 67942U 26037L   26062.58336806 -.01352377  55964-3 -27881-2 0  9991
2 67942  43.0003 236.3419 0001583 269.3870 327.0234 15.98390757  2210
STARLINK-36851          
1 67943U 26037M   26062.58336806 -.01347602  55670-3 -27600-2 0  9990
2 67943  43.0005 236.3381 0001597 270.5352 327.4415 15.98507497  2211
STARLINK-36892          
1 67944U 26037N   26062.58336806 -.01339623  55204-3 -27075-2 0  9994
2 67944  43.0003 236.3302 0001505 271.0553 330.0740 15.98741681  2217
STARLINK-36908          
1 67945U 26037P   26062.58336806 -.01336211  55105-3 -26591-2 0  9997
2 67945  43.0004 236.3199 0001686 267.8216 337.1882 15.99014038  2217
STARLINK-36909          
1 67946U 26037Q   26062.58336806 -.01326510  54429-3 -26255-2 0  9994
2 67946  43.0004 236.3171 0001661 268.8543 337.3728 15.99108314  2217
STARLINK-36920          
1 67947U 26037R   26062.58336806 -.01328427  54655-3 -26085-2 0  9996
2 67947  43.0005 236.3119 0001548 266.1203 342.0764 15.99248970  2215
STARLINK-36873          
1 67948U 26037S   26062.58336806 -.01322456  54270-3 -25803-2 0  9993
2 67948  43.0006 236.3081 0001518 267.1998 342.5143 15.99359873  2215
STARLINK-36863          
1 67949U 26037T   26062.58336806 -.01319420  54123-3 -25537-2 0  9992
2 67949  43.0007 236.3030 0001674 264.1643 347.5465 15.99500673  2216
STARLINK-36887          
1 67950U 26037U   26062.58336806 -.01318106  54107-3 -25303-2 0  9997
2 67950  43.0006 236.2976 0001456 266.5557 347.2400 15.99644597  2213
STARLINK-36897          
1 67951U 26037V   26062.58336806 -.01320833  54388-3 -25170-2 0  9991
2 67951  43.0008 236.2936 0001384 268.1039 347.4177 15.99773925  2216
STARLINK-36381          
1 67952U 26037W   26062.58336806 -.01310410  53732-3 -24652-2 0  9998
2 67952  43.0007 236.2855 0001730 267.6650 350.9238 15.99995812  2212
STARLINK-36824          
1 67953U 26037X   26062.58336806 -.01315926  54083-3 -24915-2 0  9998
2 67953  43.0008 236.2897 0001680 264.3908 352.6688 15.99884955  2217
STARLINK-36869          
1 67954U 26037Y   26062.58336806 -.01304184  53321-3 -24398-2 0  9992
2 67954  43.0006 236.2823 0001738 266.4896 353.3457 16.00092015  2211
STARLINK-36872          
1 67955U 26037Z   26062.58336806 -.01299274  53098-3 -23955-2 0  9995
2 67955  43.0005 236.2730 0001684 262.9255   0.4564 16.00344250  2218
STARLINK-36918          
1 67956U 26037AA  26062.58336806 -.01300147  53242-3 -23783-2 0  9998
2 67956  43.0006 236.2684 0001691 262.3141   2.9459 16.00481073  2219
STARLINK-36829          
1 67957U 26037AB  26062.58336806 -.01298095  52931-3 -24123-2 0  9990
2 67957  43.0006 236.2783 0001733 262.9162 358.5487 16.00206579  2213
