[{"OBJECT_NAME":"STARLINK-36914","OBJECT_ID":"2026-037L","EPOCH":"2026-03-03T14:00:03.000384","MEAN_MOTION":15.98390757,"ECCENTRICITY":0.0001583,"INCLINATION":43.0003,"RA_OF_ASC_NODE":236.3419,"ARG_OF_PERICENTER":269.387,"MEAN_ANOMALY":327.0234,"EPHEMERIS_TYPE":0,"CLASSIFICATION_TYPE":"U","NORAD_CAT_ID":67942,"ELEMENT_SET_NO":999,"REV_AT_EPOCH":221,"BSTAR":-0.0027881,"MEAN_MOTION_DOT":-0.01352377,"MEAN_MOTION_DDOT":0.00055964},{"OBJECT_NAME":"STARLINK-36851","OBJECT_ID":"2026-037M","EPOCH":"2026-03-03T14:00:03.000384","MEAN_MOTION":15.98507497,"ECCENTRICITY":0.0001597,"INCLINATION":43.0005,"RA_OF_ASC_NODE":236.3381,"ARG_OF_PERICENTER":270.5352,"MEAN_ANOMALY":327.4415,"EPHEMERIS_TYPE":0,"CLASSIFICATION_TYPE":"U","NORAD_CAT_ID":67943,"ELEMENT_SET_NO":999,"REV_AT_EPOCH":221,"BSTAR":-0.00276,"MEAN_MOTION_DOT":-0.01347602,"MEAN_MOTION_DDOT":0.0005567},{"OBJECT_NAME":"STARLINK-36892","OBJECT_ID":"2026-037N","EPOCH":"2026-03-03T14:00:03.000384","MEAN_MOTION":15.98741681,"ECCENTRICITY":0.0001505,"INCLINATION":43.0003,"RA_OF_ASC_NODE":236.3302,"ARG_OF_PERICENTER":271.0553,"MEAN_ANOMALY":330.074,"EPHEMERIS_TYPE":0,"CLASSIFICATION_TYPE":"U","NORAD_CAT_ID":67944,"ELEMENT_SET_NO":999,"REV_AT_EPOCH":221,"BSTAR":-0.0027075,"MEAN_MOTION_DOT":-0.01339623,"MEAN_MOTION_DDOT":0.00055204},{"OBJECT_NAME":"STARLINK-36908","OBJECT_ID":"2026-037P","EPOCH":"2026-03-03T14:00:03.000384","MEAN_MOTION":15.99014038,"ECCENTRICITY":0.0001686,"INCLINATION":43.0004,"RA_OF_ASC_NODE":236.3199,"ARG_OF_PERICENTER":267.8216,"MEAN_ANOMALY":337.1882,"EPHEMERIS_TYPE":0,"CLASSIFICATION_TYPE":"U","NORAD_CAT_ID":67945,"ELEMENT_SET_NO":999,"REV_AT_EPOCH":221,"BSTAR":-0.0026591,"MEAN_MOTION_DOT":-0.01336211,"MEAN_MOTION_DDOT":0.00055105},{"OBJECT_NAME":"STARLINK-36909","OBJECT_ID":"2026-037Q","EPOCH":"2026-03-03T14:00:03.000384","MEAN_MOTION":15.99108314,"ECCENTRICITY":0.0001661,"INCLINATION":43.0004,"RA_OF_ASC_NODE":236.3171,"ARG_OF_PERICENTER":268.8543,"MEAN_ANOMALY":337.3728,"EPHEMERIS_TYPE":0,"CLASSIFICATION_TYPE":"U","NORAD_CAT_ID":67946,"ELEMENT_SET_NO":999,"REV_AT_EPOCH":221,"BSTAR":-0.0026255,"MEAN_MOTION_DOT":-0.0132651,"MEAN_MOTION_DDOT":0.00054429},{"OBJECT_NAME":"STARLINK-36920","OBJECT_ID":"2026-037R","EPOCH":"2026-03-03T14:00:03.000384","MEAN_MOTION":15.9924897,"ECCENTRICITY":0.0001548,"INCLINATION":43.0005,"RA_OF_ASC_NODE":236.3119,"ARG_OF_PERICENTER":266.1203,"MEAN_ANOMALY":342.0764,"EPHEMERIS_TYPE":0,"CLASSIFICATION_TYPE":"U","NORAD_CAT_ID":67947,"ELEMENT_SET_NO":999,"REV_AT_EPOCH":221,"BSTAR":-0.0026085,"MEAN_MOTION_DOT":-0.01328427,"MEAN_MOTION_DDOT":0.00054655},{"OBJECT_NAME":"STARLINK-36873","OBJECT_ID":"2026-037S","EPOCH":"2026-03-03T14:00:03.000384","MEAN_MOTION":15.99359873,"ECCENTRICITY":0.0001518,"INCLINATION":43.0006,"RA_OF_ASC_NODE":236.3081,"ARG_OF_PERICENTER":267.1998,"MEAN_ANOMALY":342.5143,"EPHEMERIS_TYPE":0,"CLASSIFICATION_TYPE":"U","NORAD_CAT_ID":67948,"ELEMENT_SET_NO":999,"REV_AT_EPOCH":221,"BSTAR":-0.0025803,"MEAN_MOTION_DOT":-0.01322456,"MEAN_MOTION_DDOT":0.0005427},{"OBJECT_NAME":"STARLINK-36863","OBJECT_ID":"2026-037T","EPOCH":"2026-03-03T14:00:03.000384","MEAN_MOTION":15.99500673,"ECCENTRICITY":0.0001674,"INCLINATION":43.0007,"RA_OF_ASC_NODE":236.303,"ARG_OF_PERICENTER":264.1643,"MEAN_ANOMALY":347.5465,"EPHEMERIS_TYPE":0,"CLASSIFICATION_TYPE":"U","NORAD_CAT_ID":67949,"ELEMENT_SET_NO":999,"REV_AT_EPOCH":221,"BSTAR":-0.0025537,"MEAN_MOTION_DOT":-0.0131942,"MEAN_MOTION_DDOT":0.00054123},{"OBJECT_NAME":"STARLINK-36887","OBJECT_ID":"2026-037U","EPOCH":"2026-03-03T14:00:03.000384","MEAN_MOTION":15.99644597,"ECCENTRICITY":0.0001456,"INCLINATION":43.0006,"RA_OF_ASC_NODE":236.2976,"ARG_OF_PERICENTER":266.5557,"MEAN_ANOMALY":347.24,"EPHEMERIS_TYPE":0,"CLASSIFICATION_TYPE":"U","NORAD_CAT_ID":67950,"ELEMENT_SET_NO":999,"REV_AT_EPOCH":221,"BSTAR":-0.0025303,"MEAN_MOTION_DOT":-0.01318106,"MEAN_MOTION_DDOT":0.00054107},{"OBJECT_NAME":"STARLINK-36897","OBJECT_ID":"2026-037V","EPOCH":"2026-03-03T14:00:03.000384","MEAN_MOTION":15.99773925,"ECCENTRICITY":0.0001384,"INCLINATION":43.0008,"RA_OF_ASC_NODE":236.2936,"ARG_OF_PERICENTER":268.1039,"MEAN_ANOMALY":347.4177,"EPHEMERIS_TYPE":0,"CLASSIFICATION_TYPE":"U","NORAD_CAT_ID":67951,"ELEMENT_SET_NO":999,"REV_AT_EPOCH":221,"BSTAR":-0.002517,"MEAN_MOTION_DOT":-0.01320833,"MEAN_MOTION_DDOT":0.00054388},{"OBJECT_NAME":"STARLINK-36381","OBJECT_ID":"2026-037W","EPOCH":"2026-03-03T14:00:03.000384","MEAN_MOTION":15.99995812,"ECCENTRICITY":0.000173,"INCLINATION":43.0007,"RA_OF_ASC_NODE":236.2855,"ARG_OF_PERICENTER":267.665,"MEAN_ANOMALY":350.9238,"EPHEMERIS_TYPE":0,"CLASSIFICATION_TYPE":"U","NORAD_CAT_ID":67952,"ELEMENT_SET_NO":999,"REV_AT_EPOCH":221,"BSTAR":-0.0024652,"MEAN_MOTION_DOT":-0.0131041,"MEAN_MOTION_DDOT":0.00053732},{"OBJECT_NAME":"STARLINK-36824","OBJECT_ID":"2026-037X","EPOCH":"2026-03-03T14:00:03.000384","MEAN_MOTION":15.99884955,"ECCENTRICITY":0.000168,"INCLINATION":43.0008,"RA_OF_ASC_NODE":236.2897,"ARG_OF_PERICENTER":264.3908,"MEAN_ANOMALY":352.6688,"EPHEMERIS_TYPE":0,"CLASSIFICATION_TYPE":"U","NORAD_CAT_ID":67953,"ELEMENT_SET_NO":999,"REV_AT_EPOCH":221,"BSTAR":-0.0024915,"MEAN_MOTION_DOT":-0.01315926,"MEAN_MOTION_DDOT":0.00054083},{"OBJECT_NAME":"STARLINK-36869","OBJECT_ID":"2026-037Y","EPOCH":"2026-03-03T14:00:03.000384","MEAN_MOTION":16.00092015,"ECCENTRICITY":0.0001738,"INCLINATION":43.0006,"RA_OF_ASC_NODE":236.2823,"ARG_OF_PERICENTER":266.4896,"MEAN_ANOMALY":353.3457,"EPHEMERIS_TYPE":0,"CLASSIFICATION_TYPE":"U","NORAD_CAT_ID":67954,"ELEMENT_SET_NO":999,"REV_AT_EPOCH":221,"BSTAR":-0.0024398,"MEAN_MOTION_DOT":-0.01304184,"MEAN_MOTION_DDOT":0.00053321},{"OBJECT_NAME":"STARLINK-36872","OBJECT_ID":"2026-037Z","EPOCH":"2026-03-03T14:00:03.000384","MEAN_MOTION":16.0034425,"ECCENTRICITY":0.0001684,"INCLINATION":43.0005,"RA_OF_ASC_NODE":236.273,"ARG_OF_PERICENTER":262.9255,"MEAN_ANOMALY":0.4564,"EPHEMERIS_TYPE":0,"CLASSIFICATION_TYPE":"U","NORAD_CAT_ID":67955,"ELEMENT_SET_NO":999,"REV_AT_EPOCH":221,"BSTAR":-0.0023955,"MEAN_MOTION_DOT":-0.01299274,"MEAN_MOTION_DDOT":0.00053098},{"OBJECT_NAME":"STARLINK-36918","OBJECT_ID":"2026-037AA","EPOCH":"2026-03-03T14:00:03.000384","MEAN_MOTION":16.00481073,"ECCENTRICITY":0.0001691,"INCLINATION":43.0006,"RA_OF_ASC_NODE":236.2684,"ARG_OF_PERICENTER":262.3141,"MEAN_ANOMALY":2.9459,"EPHEMERIS_TYPE":0,"CLASSIFICATION_TYPE":"U","NORAD_CAT_ID":67956,"ELEMENT_SET_NO":999,"REV_AT_EPOCH":221,"BSTAR":-0.0023783,"MEAN_MOTION_DOT":-0.01300147,"MEAN_MOTION_DDOT":0.00053242},{"OBJECT_NAME":"STARLINK-36829","OBJECT_ID":"2026-037AB","EPOCH":"2026-03-03T14:00:03.000384","MEAN_MOTION":16.00206579,"ECCENTRICITY":0.0001733,"INCLINATION":43.0006,"RA_OF_ASC_NODE":236.2783,"ARG_OF_PERICENTER":262.9162,"MEAN_ANOMALY":358.5487,"EPHEMERIS_TYPE":0,"CLASSIFICATION_TYPE":"U","NORAD_CAT_ID":67957,"ELEMENT_SET_NO":999,"REV_AT_EPOCH":221,"BSTAR":-0.0024123,"MEAN_MOTION_DOT":-0.01298095,"MEAN_MOTION_DDOT":0.00052931}]
